[
    {"x": 95, "y":275,  "placeName": "TR",   "fullName": "Turtle Rock -13250 m"},
    {"x":250, "y":430,  "placeName": "CCN",  "fullName": "Cinder Cones -5000 m"},
    {"x":620, "y":145,  "placeName": "WQBI", "fullName": "Winter Quarters Bay Inner -330 m"},
    {"x":639, "y":260,  "placeName": "WQM",  "fullName": "Winter Quarters Bay Middle -200 m"},
    {"x":640, "y":310,  "placeName": "WQBO", "fullName": "Winter Quarters Bay Outer -170 m"},
    {"x":770, "y":425,  "placeName": "Out",  "fullName": "Outfall - 0 m"},
    {"x":840, "y":455,  "placeName": "OSA",  "fullName": "Outfall South A 115 m"},
    {"x":868, "y":460,  "placeName": "OSB",  "fullName": "Outfall South B 166 m"},
    {"x":1008, "y":510,  "placeName": "Trans","fullName": "Transition 250 m"},
    {"x":1044, "y":510, "placeName": "Road", "fullName": "Road 290 m"},
    {"x":1152, "y":575, "placeName": "JetN", "fullName": "Jetty North 420 m"},
    {"x":1220, "y":599, "placeName": "JetS", "fullName": "Jetty South 434 m"},
    {"x":1465, "y":901, "placeName": "CA",   "fullName": "CA: 1000 m"}
]

